{
  "type": "FeatureCollection",
  "features": [
    {
      "type": "Feature",
      "properties": {
        "norad_id": 36585,
        "name": "GPS BIIF-1  (PRN 25)",
        "group": "gnss",
        "lat": 22.020867304172565,
        "lon": 18.718186913773906,
        "alt_km": 20160.15434608625,
        "timestamp": "2025-12-24T03:53:29.890038+00:00",
        "meta_object_name": "GPS BIIF-1  (PRN 25)",
        "meta_object_id": "2010-022A",
        "meta_epoch": "2025-12-23T05:44:03.055200",
        "meta_mean_motion": 2.00553739,
        "meta_eccentricity": 0.01265225,
        "meta_inclination": 54.2985,
        "meta_ra_of_asc_node": 215.6505,
        "meta_arg_of_pericenter": 65.2085,
        "meta_mean_anomaly": 139.2805,
        "meta_ephemeris_type": 0,
        "meta_classification_type": "U",
        "meta_norad_cat_id": 36585,
        "meta_element_set_no": 999,
        "meta_rev_at_epoch": 11406,
        "meta_bstar": 0,
        "meta_mean_motion_dot": 7.2e-07,
        "meta_mean_motion_ddot": 0,
        "tle_line1": "1 36585U 10022A   25357.23892425  .00000072  00000+0  00000+0 0  9996",
        "tle_line2": "2 36585  54.2985 215.6505 0126522  65.2085 139.2805  2.00553739114064"
      },
      "geometry": {
        "type": "Point",
        "coordinates": [
          18.718186913773906,
          22.020867304172565
        ]
      }
    },
    {
      "type": "Feature",
      "properties": {
        "norad_id": 36828,
        "name": "BEIDOU-2 IGSO-1 (C06)",
        "group": "gnss",
        "lat": 54.013786130654545,
        "lon": -98.04613171998754,
        "alt_km": 35889.00560310261,
        "timestamp": "2025-12-24T03:53:29.890050+00:00",
        "meta_object_name": "BEIDOU-2 IGSO-1 (C06)",
        "meta_object_id": "2010-036A",
        "meta_epoch": "2025-12-20T21:47:26.739168",
        "meta_mean_motion": 1.00282395,
        "meta_eccentricity": 0.0051798,
        "meta_inclination": 54.2882,
        "meta_ra_of_asc_node": 164.5739,
        "meta_arg_of_pericenter": 215.2932,
        "meta_mean_anomaly": 144.6604,
        "meta_ephemeris_type": 0,
        "meta_classification_type": "U",
        "meta_norad_cat_id": 36828,
        "meta_element_set_no": 999,
        "meta_rev_at_epoch": 5631,
        "meta_bstar": 0,
        "meta_mean_motion_dot": -5.5e-07,
        "meta_mean_motion_ddot": 0,
        "tle_line1": "1 36828U 10036A   25354.90794837 -.00000055  00000+0  00000+0 0  9992",
        "tle_line2": "2 36828  54.2882 164.5739 0051798 215.2932 144.6604  1.00282395 56317"
      },
      "geometry": {
        "type": "Point",
        "coordinates": [
          -98.04613171998754,
          54.013786130654545
        ]
      }
    },
    {
      "type": "Feature",
      "properties": {
        "norad_id": 37210,
        "name": "BEIDOU-2 G4 (C04)",
        "group": "gnss",
        "lat": -2.8441107761385966,
        "lon": -48.55139246650665,
        "alt_km": 35756.83091831706,
        "timestamp": "2025-12-24T03:53:29.890063+00:00",
        "meta_object_name": "BEIDOU-2 G4 (C04)",
        "meta_object_id": "2010-057A",
        "meta_epoch": "2025-12-23T20:02:13.890336",
        "meta_mean_motion": 1.00271716,
        "meta_eccentricity": 0.0010411,
        "meta_inclination": 3.2103,
        "meta_ra_of_asc_node": 69.8963,
        "meta_arg_of_pericenter": 193.6948,
        "meta_mean_anomaly": 289.6707,
        "meta_ephemeris_type": 0,
        "meta_classification_type": "U",
        "meta_norad_cat_id": 37210,
        "meta_element_set_no": 999,
        "meta_rev_at_epoch": 5553,
        "meta_bstar": 0,
        "meta_mean_motion_dot": -9.2e-07,
        "meta_mean_motion_ddot": 0,
        "tle_line1": "1 37210U 10057A   25357.83488299 -.00000092  00000+0  00000+0 0  9999",
        "tle_line2": "2 37210   3.2103  69.8963 0010411 193.6948 289.6707  1.00271716 55534"
      },
      "geometry": {
        "type": "Point",
        "coordinates": [
          -48.55139246650665,
          -2.8441107761385966
        ]
      }
    },
    {
      "type": "Feature",
      "properties": {
        "norad_id": 37256,
        "name": "BEIDOU-2 IGSO-2 (C07)",
        "group": "gnss",
        "lat": -10.5551251055115,
        "lon": -95.68234327051638,
        "alt_km": 35914.64127122443,
        "timestamp": "2025-12-24T03:53:29.890075+00:00",
        "meta_object_name": "BEIDOU-2 IGSO-2 (C07)",
        "meta_object_id": "2010-068A",
        "meta_epoch": "2025-12-23T17:03:51.689952",
        "meta_mean_motion": 1.00283101,
        "meta_eccentricity": 0.0048564,
        "meta_inclination": 47.8659,
        "meta_ra_of_asc_node": 274.0149,
        "meta_arg_of_pericenter": 216.3394,
        "meta_mean_anomaly": 326.1369,
        "meta_ephemeris_type": 0,
        "meta_classification_type": "U",
        "meta_norad_cat_id": 37256,
        "meta_element_set_no": 999,
        "meta_rev_at_epoch": 5503,
        "meta_bstar": 0,
        "meta_mean_motion_dot": -1.88e-06,
        "meta_mean_motion_ddot": 0,
        "tle_line1": "1 37256U 10068A   25357.71101493 -.00000188  00000+0  00000+0 0  9992",
        "tle_line2": "2 37256  47.8659 274.0149 0048564 216.3394 326.1369  1.00283101 55035"
      },
      "geometry": {
        "type": "Point",
        "coordinates": [
          -95.68234327051638,
          -10.5551251055115
        ]
      }
    },
    {
      "type": "Feature",
      "properties": {
        "norad_id": 37384,
        "name": "BEIDOU-2 IGSO-3 (C08)",
        "group": "gnss",
        "lat": -32.06882160044749,
        "lon": -118.82987969272452,
        "alt_km": 35661.440454235984,
        "timestamp": "2025-12-24T03:53:29.890087+00:00",
        "meta_object_name": "BEIDOU-2 IGSO-3 (C08)",
        "meta_object_id": "2011-013A",
        "meta_epoch": "2025-12-23T13:38:13.451136",
        "meta_mean_motion": 1.00268394,
        "meta_eccentricity": 0.0035347,
        "meta_inclination": 62.1571,
        "meta_ra_of_asc_node": 41.8137,
        "meta_arg_of_pericenter": 187.6149,
        "meta_mean_anomaly": 174.7745,
        "meta_ephemeris_type": 0,
        "meta_classification_type": "U",
        "meta_norad_cat_id": 37384,
        "meta_element_set_no": 999,
        "meta_rev_at_epoch": 5390,
        "meta_bstar": 0,
        "meta_mean_motion_dot": -1.6e-06,
        "meta_mean_motion_ddot": 0,
        "tle_line1": "1 37384U 11013A   25357.56821124 -.00000160  00000+0  00000+0 0  9998",
        "tle_line2": "2 37384  62.1571  41.8137 0035347 187.6149 174.7745  1.00268394 53906"
      },
      "geometry": {
        "type": "Point",
        "coordinates": [
          -118.82987969272452,
          -32.06882160044749
        ]
      }
    },
    {
      "type": "Feature",
      "properties": {
        "norad_id": 37605,
        "name": "GSAT-8 (GAGAN/PRN 127)",
        "group": "gnss",
        "lat": 1.414535454212714,
        "lon": -153.70147735167282,
        "alt_km": 35769.35063501264,
        "timestamp": "2025-12-24T03:53:29.890100+00:00",
        "meta_object_name": "GSAT-8 (GAGAN/PRN 127)",
        "meta_object_id": "2011-022A",
        "meta_epoch": "2025-12-23T18:31:50.766240",
        "meta_mean_motion": 1.00271275,
        "meta_eccentricity": 0.0008919,
        "meta_inclination": 1.6765,
        "meta_ra_of_asc_node": 84.0796,
        "meta_arg_of_pericenter": 186.0388,
        "meta_mean_anomaly": 155.4684,
        "meta_ephemeris_type": 0,
        "meta_classification_type": "U",
        "meta_norad_cat_id": 37605,
        "meta_element_set_no": 999,
        "meta_rev_at_epoch": 5145,
        "meta_bstar": 0,
        "meta_mean_motion_dot": 1.05e-06,
        "meta_mean_motion_ddot": 0,
        "tle_line1": "1 37605U 11022A   25357.77211535  .00000105  00000+0  00000+0 0  9994",
        "tle_line2": "2 37605   1.6765  84.0796 0008919 186.0388 155.4684  1.00271275 51456"
      },
      "geometry": {
        "type": "Point",
        "coordinates": [
          -153.70147735167282,
          1.414535454212714
        ]
      }
    },
    {
      "type": "Feature",
      "properties": {
        "norad_id": 37763,
        "name": "BEIDOU-2 IGSO-4 (C09)",
        "group": "gnss",
        "lat": 52.81930190728833,
        "lon": -122.866606652389,
        "alt_km": 36331.70778729477,
        "timestamp": "2025-12-24T03:53:29.890112+00:00",
        "meta_object_name": "BEIDOU-2 IGSO-4 (C09)",
        "meta_object_id": "2011-038A",
        "meta_epoch": "2025-12-21T10:06:26.864064",
        "meta_mean_motion": 1.00280083,
        "meta_eccentricity": 0.01491557,
        "meta_inclination": 54.5854,
        "meta_ra_of_asc_node": 167.2693,
        "meta_arg_of_pericenter": 230.0944,
        "meta_mean_anomaly": 299.1265,
        "meta_ephemeris_type": 0,
        "meta_classification_type": "U",
        "meta_norad_cat_id": 37763,
        "meta_element_set_no": 999,
        "meta_rev_at_epoch": 5286,
        "meta_bstar": 0,
        "meta_mean_motion_dot": 5.9e-07,
        "meta_mean_motion_ddot": 0,
        "tle_line1": "1 37763U 11038A   25355.42114426  .00000059  00000+0  00000+0 0  9995",
        "tle_line2": "2 37763  54.5854 167.2693 0149155 230.0944 299.1265  1.00280083 52867"
      },
      "geometry": {
        "type": "Point",
        "coordinates": [
          -122.866606652389,
          52.81930190728833
        ]
      }
    }
  ]
}